ATLAS CENTAUR 2         
1 00694U 63047A   25356.83618464  .00001887  00000+0  22028-3 0  9990
2 00694  30.3529 265.0611 0548751 123.1169 242.3319 14.11802115120750
THOR AGENA D R/B        
1 00733U 64002A   25356.63062574  .00000206  00000+0  90520-4 0  9996
2 00733  99.1218   0.7842 0033732 121.9314 238.5157 14.33965287227252
SL-3 R/B                
1 00877U 64053B   25356.83813045  .00000138  00000+0  51172-4 0  9994
2 00877  65.0748 196.5318 0074707 317.0298  42.4980 14.61283032255562
SL-8 R/B                
1 02802U 67045B   25356.82770532  .00000392  00000+0  11599-3 0  9990
2 02802  74.0106 131.6255 0063795 158.4690 201.9173 14.45547009 77914
SL-8 R/B                
1 03230U 68040B   25356.62757392  .00003184  00000+0  24061-3 0  9999
2 03230  74.0315 111.0784 0025971 310.9348  48.9592 15.02590681 78430
OAO 2                   
1 03597U 68110A   25356.65350718  .00000225  00000+0  65770-4 0  9993
2 03597  34.9949 335.3163 0006026 296.2069  63.8002 14.47249902  7936
ISIS 1                  
1 03669U 69009A   25356.70780887  .00000205  00000+0  14804-3 0  9990
2 03669  88.4490 163.7058 1707000 244.5516  96.9556 11.30358711339837
SERT 2                  
1 04327U 70009A   25356.82031008  .00000028  00000+0  94296-4 0  9998
2 04327  99.2666 299.1589 0005103  11.2883  43.3766 13.58719107769453
SL-3 R/B                
1 05118U 71028B   25356.84460962  .00033196  00000+0  48925-3 0  9995
2 05118  81.2380 146.4926 0019191 204.2290 155.8060 15.55015151976704
ASTEX 1                 
1 05560U 71089A   25356.84491807  .00000554  00000+0  14142-3 0  9991
2 05560  92.7147 126.8889 0015080 352.5920   7.5060 14.50654157851167
SL-8 R/B                
1 05730U 71119B   25356.92850252  .00012890  00000+0  66994-3 0  9994
2 05730  73.8897 319.0009 0558611 301.2238  53.5310 14.35970869644469
OAO 3 (COPERNICUS)      
1 06153U 72065A   25356.81899410  .00000346  00000+0  75536-4 0  9998
2 06153  35.0071  15.2500 0007201 252.8570 274.0057 14.59914651834954
