CCSDS_OMM_VERS = 2.0
CREATION_DATE  = 
ORIGINATOR     = 

OBJECT_NAME    = ATLAS CENTAUR 2
OBJECT_ID      = 1963-047A
CENTER_NAME    = EARTH
REF_FRAME      = TEME
TIME_SYSTEM    = UTC
MEAN_ELEMENT_THEORY = SGP/SGP4

EPOCH          = 2025-12-22T20:04:06.352896
MEAN_MOTION    = 14.11802115
ECCENTRICITY   = .0548751
INCLINATION    = 30.3529
RA_OF_ASC_NODE = 265.0611
ARG_OF_PERICENTER = 123.1169
MEAN_ANOMALY   = 242.3319

EPHEMERIS_TYPE = 0
CLASSIFICATION_TYPE = U
NORAD_CAT_ID   = 694
ELEMENT_SET_NO = 999
REV_AT_EPOCH   = 12075
BSTAR          = .22027525E-3
MEAN_MOTION_DOT = .1887E-4
MEAN_MOTION_DDOT = 0

CCSDS_OMM_VERS = 2.0
CREATION_DATE  = 
ORIGINATOR     = 

OBJECT_NAME    = THOR AGENA D R/B
OBJECT_ID      = 1964-002A
CENTER_NAME    = EARTH
REF_FRAME      = TEME
TIME_SYSTEM    = UTC
MEAN_ELEMENT_THEORY = SGP/SGP4

EPOCH          = 2025-12-22T15:08:06.063936
MEAN_MOTION    = 14.33965287
ECCENTRICITY   = .00337322
INCLINATION    = 99.1218
RA_OF_ASC_NODE = 0.7842
ARG_OF_PERICENTER = 121.9314
MEAN_ANOMALY   = 238.5157

EPHEMERIS_TYPE = 0
CLASSIFICATION_TYPE = U
NORAD_CAT_ID   = 733
ELEMENT_SET_NO = 999
REV_AT_EPOCH   = 22725
BSTAR          = .90519545E-4
MEAN_MOTION_DOT = .206E-5
MEAN_MOTION_DDOT = 0

CCSDS_OMM_VERS = 2.0
CREATION_DATE  = 
ORIGINATOR     = 

OBJECT_NAME    = SL-3 R/B
OBJECT_ID      = 1964-053B
CENTER_NAME    = EARTH
REF_FRAME      = TEME
TIME_SYSTEM    = UTC
MEAN_ELEMENT_THEORY = SGP/SGP4

EPOCH          = 2025-12-22T20:06:54.470880
MEAN_MOTION    = 14.61283032
ECCENTRICITY   = .00747079
INCLINATION    = 65.0748
RA_OF_ASC_NODE = 196.5318
ARG_OF_PERICENTER = 317.0298
MEAN_ANOMALY   = 42.4980

EPHEMERIS_TYPE = 0
CLASSIFICATION_TYPE = U
NORAD_CAT_ID   = 877
ELEMENT_SET_NO = 999
REV_AT_EPOCH   = 25556
BSTAR          = .51172215E-4
MEAN_MOTION_DOT = .138E-5
MEAN_MOTION_DDOT = 0

CCSDS_OMM_VERS = 2.0
CREATION_DATE  = 
ORIGINATOR     = 

OBJECT_NAME    = SL-8 R/B
OBJECT_ID      = 1967-045B
CENTER_NAME    = EARTH
REF_FRAME      = TEME
TIME_SYSTEM    = UTC
MEAN_ELEMENT_THEORY = SGP/SGP4

EPOCH          = 2025-12-22T19:51:53.739648
MEAN_MOTION    = 14.45547009
ECCENTRICITY   = .00637957
INCLINATION    = 74.0106
RA_OF_ASC_NODE = 131.6255
ARG_OF_PERICENTER = 158.4690
MEAN_ANOMALY   = 201.9173

EPHEMERIS_TYPE = 0
CLASSIFICATION_TYPE = U
NORAD_CAT_ID   = 2802
ELEMENT_SET_NO = 999
REV_AT_EPOCH   = 7791
BSTAR          = .11599468E-3
MEAN_MOTION_DOT = .392E-5
MEAN_MOTION_DDOT = 0

CCSDS_OMM_VERS = 2.0
CREATION_DATE  = 
ORIGINATOR     = 

OBJECT_NAME    = SL-8 R/B
OBJECT_ID      = 1968-040B
CENTER_NAME    = EARTH
REF_FRAME      = TEME
TIME_SYSTEM    = UTC
MEAN_ELEMENT_THEORY = SGP/SGP4

EPOCH          = 2025-12-22T15:03:42.386688
MEAN_MOTION    = 15.02590681
ECCENTRICITY   = .00259718
INCLINATION    = 74.0315
RA_OF_ASC_NODE = 111.0784
ARG_OF_PERICENTER = 310.9348
MEAN_ANOMALY   = 48.9592

EPHEMERIS_TYPE = 0
CLASSIFICATION_TYPE = U
NORAD_CAT_ID   = 3230
ELEMENT_SET_NO = 999
REV_AT_EPOCH   = 7843
BSTAR          = .2406099E-3
MEAN_MOTION_DOT = .3184E-4
MEAN_MOTION_DDOT = 0

CCSDS_OMM_VERS = 2.0
CREATION_DATE  = 
ORIGINATOR     = 

OBJECT_NAME    = OAO 2
OBJECT_ID      = 1968-110A
CENTER_NAME    = EARTH
REF_FRAME      = TEME
TIME_SYSTEM    = UTC
MEAN_ELEMENT_THEORY = SGP/SGP4

EPOCH          = 2025-12-22T15:41:03.020352
MEAN_MOTION    = 14.47249902
ECCENTRICITY   = .00060264
INCLINATION    = 34.9949
RA_OF_ASC_NODE = 335.3163
ARG_OF_PERICENTER = 296.2069
MEAN_ANOMALY   = 63.8002

EPHEMERIS_TYPE = 0
CLASSIFICATION_TYPE = U
NORAD_CAT_ID   = 3597
ELEMENT_SET_NO = 999
REV_AT_EPOCH   = 793
BSTAR          = .65769657E-4
MEAN_MOTION_DOT = .225E-5
MEAN_MOTION_DDOT = 0

CCSDS_OMM_VERS = 2.0
CREATION_DATE  = 
ORIGINATOR     = 

OBJECT_NAME    = ISIS 1
OBJECT_ID      = 1969-009A
CENTER_NAME    = EARTH
REF_FRAME      = TEME
TIME_SYSTEM    = UTC
MEAN_ELEMENT_THEORY = SGP/SGP4

EPOCH          = 2025-12-22T16:59:14.686368
MEAN_MOTION    = 11.30358711
ECCENTRICITY   = .17070004
INCLINATION    = 88.4490
RA_OF_ASC_NODE = 163.7058
ARG_OF_PERICENTER = 244.5516
MEAN_ANOMALY   = 96.9556

EPHEMERIS_TYPE = 0
CLASSIFICATION_TYPE = U
NORAD_CAT_ID   = 3669
ELEMENT_SET_NO = 999
REV_AT_EPOCH   = 33983
BSTAR          = .14803909E-3
MEAN_MOTION_DOT = .205E-5
MEAN_MOTION_DDOT = 0

CCSDS_OMM_VERS = 2.0
CREATION_DATE  = 
ORIGINATOR     = 

OBJECT_NAME    = SERT 2
OBJECT_ID      = 1970-009A
CENTER_NAME    = EARTH
REF_FRAME      = TEME
TIME_SYSTEM    = UTC
MEAN_ELEMENT_THEORY = SGP/SGP4

EPOCH          = 2025-12-22T19:41:14.790912
MEAN_MOTION    = 13.58719107
ECCENTRICITY   = .00051037
INCLINATION    = 99.2666
RA_OF_ASC_NODE = 299.1589
ARG_OF_PERICENTER = 11.2883
MEAN_ANOMALY   = 43.3766

EPHEMERIS_TYPE = 0
CLASSIFICATION_TYPE = U
NORAD_CAT_ID   = 4327
ELEMENT_SET_NO = 999
REV_AT_EPOCH   = 76945
BSTAR          = .94295907E-4
MEAN_MOTION_DOT = .28E-6
MEAN_MOTION_DDOT = 0

CCSDS_OMM_VERS = 2.0
CREATION_DATE  = 
ORIGINATOR     = 

OBJECT_NAME    = SL-3 R/B
OBJECT_ID      = 1971-028B
CENTER_NAME    = EARTH
REF_FRAME      = TEME
TIME_SYSTEM    = UTC
MEAN_ELEMENT_THEORY = SGP/SGP4

EPOCH          = 2025-12-22T20:16:14.271168
MEAN_MOTION    = 15.55015151
ECCENTRICITY   = .00191915
INCLINATION    = 81.2380
RA_OF_ASC_NODE = 146.4926
ARG_OF_PERICENTER = 204.2290
MEAN_ANOMALY   = 155.8060

EPHEMERIS_TYPE = 0
CLASSIFICATION_TYPE = U
NORAD_CAT_ID   = 5118
ELEMENT_SET_NO = 999
REV_AT_EPOCH   = 97670
BSTAR          = .48925397E-3
MEAN_MOTION_DOT = .33196E-3
MEAN_MOTION_DDOT = 0

CCSDS_OMM_VERS = 2.0
CREATION_DATE  = 
ORIGINATOR     = 

OBJECT_NAME    = ASTEX 1
OBJECT_ID      = 1971-089A
CENTER_NAME    = EARTH
REF_FRAME      = TEME
TIME_SYSTEM    = UTC
MEAN_ELEMENT_THEORY = SGP/SGP4

EPOCH          = 2025-12-22T20:16:40.921248
MEAN_MOTION    = 14.50654157
ECCENTRICITY   = .00150809
INCLINATION    = 92.7147
RA_OF_ASC_NODE = 126.8889
ARG_OF_PERICENTER = 352.5920
MEAN_ANOMALY   = 7.5060

EPHEMERIS_TYPE = 0
CLASSIFICATION_TYPE = U
NORAD_CAT_ID   = 5560
ELEMENT_SET_NO = 999
REV_AT_EPOCH   = 85116
BSTAR          = .14141524E-3
MEAN_MOTION_DOT = .554E-5
MEAN_MOTION_DDOT = 0

CCSDS_OMM_VERS = 2.0
CREATION_DATE  = 
ORIGINATOR     = 

OBJECT_NAME    = SL-8 R/B
OBJECT_ID      = 1971-119B
CENTER_NAME    = EARTH
REF_FRAME      = TEME
TIME_SYSTEM    = UTC
MEAN_ELEMENT_THEORY = SGP/SGP4

EPOCH          = 2025-12-22T22:17:02.617728
MEAN_MOTION    = 14.35970869
ECCENTRICITY   = .05586111
INCLINATION    = 73.8897
RA_OF_ASC_NODE = 319.0009
ARG_OF_PERICENTER = 301.2238
MEAN_ANOMALY   = 53.5310

EPHEMERIS_TYPE = 0
CLASSIFICATION_TYPE = U
NORAD_CAT_ID   = 5730
ELEMENT_SET_NO = 999
REV_AT_EPOCH   = 64446
BSTAR          = .66993722E-3
MEAN_MOTION_DOT = .1289E-3
MEAN_MOTION_DDOT = 0

CCSDS_OMM_VERS = 2.0
CREATION_DATE  = 
ORIGINATOR     = 

OBJECT_NAME    = OAO 3 (COPERNICUS)
OBJECT_ID      = 1972-065A
CENTER_NAME    = EARTH
REF_FRAME      = TEME
TIME_SYSTEM    = UTC
MEAN_ELEMENT_THEORY = SGP/SGP4

EPOCH          = 2025-12-22T19:39:21.090240
MEAN_MOTION    = 14.59914651
ECCENTRICITY   = .00072013
INCLINATION    = 35.0071
RA_OF_ASC_NODE = 15.2500
ARG_OF_PERICENTER = 252.8570
MEAN_ANOMALY   = 274.0057

EPHEMERIS_TYPE = 0
CLASSIFICATION_TYPE = U
NORAD_CAT_ID   = 6153
ELEMENT_SET_NO = 999
REV_AT_EPOCH   = 83495
BSTAR          = .75535719E-4
MEAN_MOTION_DOT = .346E-5
MEAN_MOTION_DDOT = 0

